GLOBALSTAR M084         
1 38040U 11080A   23341.32239628 -.00000081  00000+0  12935-3 0  9995
2 38040  52.0027 306.8189 0000292  27.2052 138.5730 12.62268772552214
GLOBALSTAR M080         
1 38041U 11080B   23341.37493368 -.00000092  00000+0  65229-4 0  9991
2 38041  52.0080 308.0700 0000118  32.2990 132.2544 12.62267052552349
GLOBALSTAR M082         
1 38042U 11080C   23341.22939590 -.00000104  00000+0  10427-5 0  9993
2 38042  52.0086 263.8977 0001415  52.6868 111.5164 12.62263980553032
GLOBALSTAR M092         
1 38043U 11080D   23341.34767109 -.00000094  00000+0  56845-4 0  9993
2 38043  52.0108 353.8851 0000118 317.5537 144.3159 12.62247503551505
GLOBALSTAR M090         
1 38044U 11080E   23341.08357045 -.00000092  00000+0  63354-4 0  9990
2 38044  51.9887 258.8700 0001086  61.2734  40.5426 12.62264328553131
GLOBALSTAR M086         
1 38045U 11080F   23341.19932519 -.00000091  00000+0  68899-4 0  9996
2 38045  51.9901 259.0264 0001138 115.5242  31.5929 12.62265322553090
GLOBALSTAR M097         
1 39072U 13005A   23341.51004405 -.00000074  00000+0  16540-3 0  9992
2 39072  52.0019 172.0593 0001394  91.8905 268.2122 12.62273458500385
GLOBALSTAR M093         
1 39073U 13005B   23341.56272583 -.00000077  00000+0  15138-3 0  9997
2 39073  51.9782 166.0937 0001569 100.1731 259.9313 12.62278183500346
